{"type": "FeatureCollection", "features": [{"type": "Feature", "properties": {"norad_id": 36828, "name": "BEIDOU-2 IGSO-1 (C06)", "group": "beidou", "lat": -43.44502580843076, "lon": 121.65137300745143, "alt_km": 35774.443928956454, "timestamp": "2025-12-06T18:50:10.433295+00:00", "meta": {"OBJECT_NAME": "BEIDOU-2 IGSO-1 (C06)", "OBJECT_ID": "2010-036A", "EPOCH": "2025-12-05T22:34:51.695904", "MEAN_MOTION": 1.00277976, "ECCENTRICITY": 0.0051236, "INCLINATION": 54.2851, "RA_OF_ASC_NODE": 164.7095, "ARG_OF_PERICENTER": 215.8121, "MEAN_ANOMALY": 140.9806, "EPHEMERIS_TYPE": 0, "CLASSIFICATION_TYPE": "U", "NORAD_CAT_ID": 36828, "ELEMENT_SET_NO": 999, "REV_AT_EPOCH": 5615, "BSTAR": 0, "MEAN_MOTION_DOT": -5.1e-07, "MEAN_MOTION_DDOT": 0}, "tle": {"line1": "1 36828U 10036A   25339.94087611 -.00000051  00000+0  00000+0 0  9990", "line2": "2 36828  54.2851 164.7095 0051236 215.8121 140.9806  1.00277976 56157"}}, "geometry": {"type": "Point", "coordinates": [121.65137300745143, -43.44502580843076]}}, {"type": "Feature", "properties": {"norad_id": 37210, "name": "BEIDOU-2 G4 (C04)", "group": "beidou", "lat": 3.169446849924371, "lon": 158.30362354716286, "alt_km": 35794.74910497252, "timestamp": "2025-12-06T18:50:10.433319+00:00", "meta": {"OBJECT_NAME": "BEIDOU-2 G4 (C04)", "OBJECT_ID": "2010-057A", "EPOCH": "2025-12-06T05:52:04.388736", "MEAN_MOTION": 1.00271337, "ECCENTRICITY": 0.00109581, "INCLINATION": 3.1677, "RA_OF_ASC_NODE": 69.9541, "ARG_OF_PERICENTER": 189.5357, "MEAN_ANOMALY": 63.8885, "EPHEMERIS_TYPE": 0, "CLASSIFICATION_TYPE": "U", "NORAD_CAT_ID": 37210, "ELEMENT_SET_NO": 999, "REV_AT_EPOCH": 5535, "BSTAR": 0, "MEAN_MOTION_DOT": -1.05e-06, "MEAN_MOTION_DDOT": 0}, "tle": {"line1": "1 37210U 10057A   25340.24449524 -.00000105  00000+0  00000+0 0  9999", "line2": "2 37210   3.1677  69.9541 0010958 189.5357  63.8885  1.00271337 55354"}}, "geometry": {"type": "Point", "coordinates": [158.30362354716286, 3.169446849924371]}}, {"type": "Feature", "properties": {"norad_id": 37256, "name": "BEIDOU-2 IGSO-2 (C07)", "group": "beidou", "lat": -8.344183629693886, "lon": 101.7966120307214, "alt_km": 35594.99677693446, "timestamp": "2025-12-06T18:50:10.433335+00:00", "meta": {"OBJECT_NAME": "BEIDOU-2 IGSO-2 (C07)", "OBJECT_ID": "2010-068A", "EPOCH": "2025-12-03T17:22:36.030432", "MEAN_MOTION": 1.0028871, "ECCENTRICITY": 0.00492335, "INCLINATION": 47.9043, "RA_OF_ASC_NODE": 274.2613, "ARG_OF_PERICENTER": 216.1442, "MEAN_ANOMALY": 310.2369, "EPHEMERIS_TYPE": 0, "CLASSIFICATION_TYPE": "U", "NORAD_CAT_ID": 37256, "ELEMENT_SET_NO": 999, "REV_AT_EPOCH": 5483, "BSTAR": 0, "MEAN_MOTION_DOT": -2.25e-06, "MEAN_MOTION_DDOT": 0}, "tle": {"line1": "1 37256U 10068A   25337.72402813 -.00000225  00000+0  00000+0 0  9993", "line2": "2 37256  47.9043 274.2613 0049233 216.1442 310.2369  1.00288710 54839"}}, "geometry": {"type": "Point", "coordinates": [101.7966120307214, -8.344183629693886]}}, {"type": "Feature", "properties": {"norad_id": 37384, "name": "BEIDOU-2 IGSO-3 (C08)", "group": "beidou", "lat": 52.39704893645012, "lon": 85.30650912536241, "alt_km": 35862.09663741184, "timestamp": "2025-12-06T18:50:10.433349+00:00", "meta": {"OBJECT_NAME": "BEIDOU-2 IGSO-3 (C08)", "OBJECT_ID": "2011-013A", "EPOCH": "2025-12-03T14:52:09.520896", "MEAN_MOTION": 1.00272128, "ECCENTRICITY": 0.00353922, "INCLINATION": 62.1308, "RA_OF_ASC_NODE": 42.005, "ARG_OF_PERICENTER": 186.5359, "MEAN_ANOMALY": 174.9093, "EPHEMERIS_TYPE": 0, "CLASSIFICATION_TYPE": "U", "NORAD_CAT_ID": 37384, "ELEMENT_SET_NO": 999, "REV_AT_EPOCH": 5370, "BSTAR": 0, "MEAN_MOTION_DOT": -1.99e-06, "MEAN_MOTION_DDOT": 0}, "tle": {"line1": "1 37384U 11013A   25337.61955464 -.00000199  00000+0  00000+0 0  9999", "line2": "2 37384  62.1308  42.0050 0035392 186.5359 174.9093  1.00272128 53708"}}, "geometry": {"type": "Point", "coordinates": [85.30650912536241, 52.39704893645012]}}, {"type": "Feature", "properties": {"norad_id": 37763, "name": "BEIDOU-2 IGSO-4 (C09)", "group": "beidou", "lat": -51.30946528693059, "lon": 104.51643966120955, "alt_km": 35433.736958816655, "timestamp": "2025-12-06T18:50:10.433363+00:00", "meta": {"OBJECT_NAME": "BEIDOU-2 IGSO-4 (C09)", "OBJECT_ID": "2011-038A", "EPOCH": "2025-12-01T12:32:09.960864", "MEAN_MOTION": 1.00284074, "ECCENTRICITY": 0.01487808, "INCLINATION": 54.5808, "RA_OF_ASC_NODE": 167.4476, "ARG_OF_PERICENTER": 230.2031, "MEAN_ANOMALY": 315.0387, "EPHEMERIS_TYPE": 0, "CLASSIFICATION_TYPE": "U", "NORAD_CAT_ID": 37763, "ELEMENT_SET_NO": 999, "REV_AT_EPOCH": 5266, "BSTAR": 0, "MEAN_MOTION_DOT": 1.01e-06, "MEAN_MOTION_DDOT": 0}, "tle": {"line1": "1 37763U 11038A   25335.52233751  .00000101  00000+0  00000+0 0  9995", "line2": "2 37763  54.5808 167.4476 0148780 230.2031 315.0387  1.00284074 52664"}}, "geometry": {"type": "Point", "coordinates": [104.51643966120955, -51.30946528693059]}}, {"type": "Feature", "properties": {"norad_id": 37948, "name": "BEIDOU-2 IGSO-5 (C10)", "group": "beidou", "lat": 2.851598250533178, "lon": 91.33652554768487, "alt_km": 35454.56828756792, "timestamp": "2025-12-06T18:50:10.433376+00:00", "meta": {"OBJECT_NAME": "BEIDOU-2 IGSO-5 (C10)", "OBJECT_ID": "2011-073A", "EPOCH": "2025-12-05T19:16:03.972000", "MEAN_MOTION": 1.00291877, "ECCENTRICITY": 0.01105894, "INCLINATION": 48.0339, "RA_OF_ASC_NODE": 273.9433, "ARG_OF_PERICENTER": 222.1593, "MEAN_ANOMALY": 320.3155, "EPHEMERIS_TYPE": 0, "CLASSIFICATION_TYPE": "U", "NORAD_CAT_ID": 37948, "ELEMENT_SET_NO": 999, "REV_AT_EPOCH": 5119, "BSTAR": 0, "MEAN_MOTION_DOT": -1.79e-06, "MEAN_MOTION_DDOT": 0}, "tle": {"line1": "1 37948U 11073A   25339.80282375 -.00000179  00000+0  00000+0 0  9996", "line2": "2 37948  48.0339 273.9433 0110589 222.1593 320.3155  1.00291877 51199"}}, "geometry": {"type": "Point", "coordinates": [91.33652554768487, 2.851598250533178]}}, {"type": "Feature", "properties": {"norad_id": 38091, "name": "BEIDOU-2 G5 (C05)", "group": "beidou", "lat": -0.6987175987960513, "lon": 57.2199733378916, "alt_km": 35812.4986899938, "timestamp": "2025-12-06T18:50:10.433389+00:00", "meta": {"OBJECT_NAME": "BEIDOU-2 G5 (C05)", "OBJECT_ID": "2012-008A", "EPOCH": "2025-12-06T05:22:59.674656", "MEAN_MOTION": 1.00273238, "ECCENTRICITY": 0.00124834, "INCLINATION": 3.0923, "RA_OF_ASC_NODE": 70.7281, "ARG_OF_PERICENTER": 226.1461, "MEAN_ANOMALY": 277.8607, "EPHEMERIS_TYPE": 0, "CLASSIFICATION_TYPE": "U", "NORAD_CAT_ID": 38091, "ELEMENT_SET_NO": 999, "REV_AT_EPOCH": 5043, "BSTAR": 0, "MEAN_MOTION_DOT": 6.3e-07, "MEAN_MOTION_DDOT": 0}, "tle": {"line1": "1 38091U 12008A   25340.22430179  .00000063  00000+0  00000+0 0  9991", "line2": "2 38091   3.0923  70.7281 0012483 226.1461 277.8607  1.00273238 50430"}}, "geometry": {"type": "Point", "coordinates": [57.2199733378916, -0.6987175987960513]}}, {"type": "Feature", "properties": {"norad_id": 38250, "name": "BEIDOU-2 M3 (C11)", "group": "beidou", "lat": -47.988094325943, "lon": -179.98540804355025, "alt_km": 21474.556180944866, "timestamp": "2025-12-06T18:50:10.433400+00:00", "meta": {"OBJECT_NAME": "BEIDOU-2 M3 (C11)", "OBJECT_ID": "2012-018A", "EPOCH": "2025-12-05T21:12:32.531040", "MEAN_MOTION": 1.86229708, "ECCENTRICITY": 0.00244284, "INCLINATION": 55.926, "RA_OF_ASC_NODE": 311.388, "ARG_OF_PERICENTER": 273.8805, "MEAN_ANOMALY": 85.8231, "EPHEMERIS_TYPE": 0, "CLASSIFICATION_TYPE": "U", "NORAD_CAT_ID": 38250, "ELEMENT_SET_NO": 999, "REV_AT_EPOCH": 9234, "BSTAR": 0, "MEAN_MOTION_DOT": -7e-07, "MEAN_MOTION_DDOT": 0}, "tle": {"line1": "1 38250U 12018A   25339.88370985 -.00000070  00000+0  00000+0 0  9996", "line2": "2 38250  55.9260 311.3880 0024428 273.8805  85.8231  1.86229708 92342"}}, "geometry": {"type": "Point", "coordinates": [-179.98540804355025, -47.988094325943]}}, {"type": "Feature", "properties": {"norad_id": 38251, "name": "BEIDOU-2 M4 (C12)", "group": "beidou", "lat": -51.20627048943246, "lon": -107.07183163455356, "alt_km": 21491.334290947314, "timestamp": "2025-12-06T18:50:10.433412+00:00", "meta": {"OBJECT_NAME": "BEIDOU-2 M4 (C12)", "OBJECT_ID": "2012-018B", "EPOCH": "2025-12-05T06:41:27.869856", "MEAN_MOTION": 1.86229397, "ECCENTRICITY": 0.00155808, "INCLINATION": 55.8281, "RA_OF_ASC_NODE": 310.638, "ARG_OF_PERICENTER": 277.012, "MEAN_ANOMALY": 82.7935, "EPHEMERIS_TYPE": 0, "CLASSIFICATION_TYPE": "U", "NORAD_CAT_ID": 38251, "ELEMENT_SET_NO": 999, "REV_AT_EPOCH": 9233, "BSTAR": 0, "MEAN_MOTION_DOT": -6.9e-07, "MEAN_MOTION_DDOT": 0}, "tle": {"line1": "1 38251U 12018B   25339.27879479 -.00000069  00000+0  00000+0 0  9990", "line2": "2 38251  55.8281 310.6380 0015580 277.0120  82.7935  1.86229397 92337"}}, "geometry": {"type": "Point", "coordinates": [-107.07183163455356, -51.20627048943246]}}, {"type": "Feature", "properties": {"norad_id": 38775, "name": "BEIDOU-2 M6 (C14)", "group": "beidou", "lat": 43.92619245030586, "lon": -150.51843462293263, "alt_km": 21545.42036685589, "timestamp": "2025-12-06T18:50:10.433424+00:00", "meta": {"OBJECT_NAME": "BEIDOU-2 M6 (C14)", "OBJECT_ID": "2012-050B", "EPOCH": "2025-12-06T01:31:40.746720", "MEAN_MOTION": 1.86230698, "ECCENTRICITY": 0.00109594, "INCLINATION": 56.3729, "RA_OF_ASC_NODE": 69.2891, "ARG_OF_PERICENTER": 345.8795, "MEAN_ANOMALY": 14.1028, "EPHEMERIS_TYPE": 0, "CLASSIFICATION_TYPE": "U", "NORAD_CAT_ID": 38775, "ELEMENT_SET_NO": 999, "REV_AT_EPOCH": 8971, "BSTAR": 0, "MEAN_MOTION_DOT": -4.7e-07, "MEAN_MOTION_DDOT": 0}, "tle": {"line1": "1 38775U 12050B   25340.06366605 -.00000047  00000+0  00000+0 0  9994", "line2": "2 38775  56.3729  69.2891 0010959 345.8795  14.1028  1.86230698 89718"}}, "geometry": {"type": "Point", "coordinates": [-150.51843462293263, 43.92619245030586]}}]}